<?xml version="1.0" encoding="UTF-8"?>
<ndm xmlns:xsi="http://www.w3.org/2001/XMLSchema-instance" xsi:noNamespaceSchemaLocation="https://sanaregistry.org/r/ndmxml_unqualified/ndmxml-2.0.0-master-2.0.xsd">
<omm id="CCSDS_OMM_VERS" version="2.0">
<header><CREATION_DATE/><ORIGINATOR/></header><body><segment><metadata><OBJECT_NAME>KUIPER-00016</OBJECT_NAME><OBJECT_ID>2025-088J</OBJECT_ID><CENTER_NAME>EARTH</CENTER_NAME><REF_FRAME>TEME</REF_FRAME><TIME_SYSTEM>UTC</TIME_SYSTEM><MEAN_ELEMENT_THEORY>SGP4</MEAN_ELEMENT_THEORY></metadata><data><meanElements><EPOCH>2025-08-03T22:00:01.999584</EPOCH><MEAN_MOTION>15.03055448</MEAN_MOTION><ECCENTRICITY>.0011227</ECCENTRICITY><INCLINATION>51.8885</INCLINATION><RA_OF_ASC_NODE>356.0561</RA_OF_ASC_NODE><ARG_OF_PERICENTER>67.1941</ARG_OF_PERICENTER><MEAN_ANOMALY>224.7845</MEAN_ANOMALY></meanElements><tleParameters><EPHEMERIS_TYPE>0</EPHEMERIS_TYPE><CLASSIFICATION_TYPE>U</CLASSIFICATION_TYPE><NORAD_CAT_ID>63732</NORAD_CAT_ID><ELEMENT_SET_NO>999</ELEMENT_SET_NO><REV_AT_EPOCH>1505</REV_AT_EPOCH><BSTAR>-.23875E-2</BSTAR><MEAN_MOTION_DOT>-.3271E-3</MEAN_MOTION_DOT><MEAN_MOTION_DDOT>0</MEAN_MOTION_DDOT></tleParameters></data></segment></body></omm>
<omm id="CCSDS_OMM_VERS" version="2.0">
<header><CREATION_DATE/><ORIGINATOR/></header><body><segment><metadata><OBJECT_NAME>KUIPER-00018</OBJECT_NAME><OBJECT_ID>2025-088K</OBJECT_ID><CENTER_NAME>EARTH</CENTER_NAME><REF_FRAME>TEME</REF_FRAME><TIME_SYSTEM>UTC</TIME_SYSTEM><MEAN_ELEMENT_THEORY>SGP4</MEAN_ELEMENT_THEORY></metadata><data><meanElements><EPOCH>2025-08-03T22:00:01.999584</EPOCH><MEAN_MOTION>15.22276247</MEAN_MOTION><ECCENTRICITY>.0005906</ECCENTRICITY><INCLINATION>51.8750</INCLINATION><RA_OF_ASC_NODE>350.6459</RA_OF_ASC_NODE><ARG_OF_PERICENTER>90.3859</ARG_OF_PERICENTER><MEAN_ANOMALY>60.2492</MEAN_ANOMALY></meanElements><tleParameters><EPHEMERIS_TYPE>0</EPHEMERIS_TYPE><CLASSIFICATION_TYPE>U</CLASSIFICATION_TYPE><NORAD_CAT_ID>63733</NORAD_CAT_ID><ELEMENT_SET_NO>999</ELEMENT_SET_NO><REV_AT_EPOCH>1513</REV_AT_EPOCH><BSTAR>.82548E-3</BSTAR><MEAN_MOTION_DOT>.18985E-3</MEAN_MOTION_DOT><MEAN_MOTION_DDOT>0</MEAN_MOTION_DDOT></tleParameters></data></segment></body></omm>
<omm id="CCSDS_OMM_VERS" version="2.0">
<header><CREATION_DATE/><ORIGINATOR/></header><body><segment><metadata><OBJECT_NAME>KUIPER-00019</OBJECT_NAME><OBJECT_ID>2025-088L</OBJECT_ID><CENTER_NAME>EARTH</CENTER_NAME><REF_FRAME>TEME</REF_FRAME><TIME_SYSTEM>UTC</TIME_SYSTEM><MEAN_ELEMENT_THEORY>SGP4</MEAN_ELEMENT_THEORY></metadata><data><meanElements><EPOCH>2025-08-03T22:00:01.999584</EPOCH><MEAN_MOTION>15.29833586</MEAN_MOTION><ECCENTRICITY>.0005657</ECCENTRICITY><INCLINATION>51.8731</INCLINATION><RA_OF_ASC_NODE>349.8862</RA_OF_ASC_NODE><ARG_OF_PERICENTER>88.1784</ARG_OF_PERICENTER><MEAN_ANOMALY>63.0001</MEAN_ANOMALY></meanElements><tleParameters><EPHEMERIS_TYPE>0</EPHEMERIS_TYPE><CLASSIFICATION_TYPE>U</CLASSIFICATION_TYPE><NORAD_CAT_ID>63734</NORAD_CAT_ID><ELEMENT_SET_NO>999</ELEMENT_SET_NO><REV_AT_EPOCH>1514</REV_AT_EPOCH><BSTAR>-.60795E-1</BSTAR><MEAN_MOTION_DOT>-.162171E-1</MEAN_MOTION_DOT><MEAN_MOTION_DDOT>0</MEAN_MOTION_DDOT></tleParameters></data></segment></body></omm>
<omm id="CCSDS_OMM_VERS" version="2.0">
<header><CREATION_DATE/><ORIGINATOR/></header><body><segment><metadata><OBJECT_NAME>KUIPER-00020</OBJECT_NAME><OBJECT_ID>2025-088M</OBJECT_ID><CENTER_NAME>EARTH</CENTER_NAME><REF_FRAME>TEME</REF_FRAME><TIME_SYSTEM>UTC</TIME_SYSTEM><MEAN_ELEMENT_THEORY>SGP4</MEAN_ELEMENT_THEORY></metadata><data><meanElements><EPOCH>2025-08-03T22:00:01.999584</EPOCH><MEAN_MOTION>15.18119802</MEAN_MOTION><ECCENTRICITY>.0007474</ECCENTRICITY><INCLINATION>51.8828</INCLINATION><RA_OF_ASC_NODE>351.5538</RA_OF_ASC_NODE><ARG_OF_PERICENTER>91.1392</ARG_OF_PERICENTER><MEAN_ANOMALY>289.2557</MEAN_ANOMALY></meanElements><tleParameters><EPHEMERIS_TYPE>0</EPHEMERIS_TYPE><CLASSIFICATION_TYPE>U</CLASSIFICATION_TYPE><NORAD_CAT_ID>63735</NORAD_CAT_ID><ELEMENT_SET_NO>999</ELEMENT_SET_NO><REV_AT_EPOCH>1533</REV_AT_EPOCH><BSTAR>-.4612E-1</BSTAR><MEAN_MOTION_DOT>-.886777E-2</MEAN_MOTION_DOT><MEAN_MOTION_DDOT>0</MEAN_MOTION_DDOT></tleParameters></data></segment></body></omm>
<omm id="CCSDS_OMM_VERS" version="2.0">
<header><CREATION_DATE/><ORIGINATOR/></header><body><segment><metadata><OBJECT_NAME>KUIPER-00021</OBJECT_NAME><OBJECT_ID>2025-088N</OBJECT_ID><CENTER_NAME>EARTH</CENTER_NAME><REF_FRAME>TEME</REF_FRAME><TIME_SYSTEM>UTC</TIME_SYSTEM><MEAN_ELEMENT_THEORY>SGP4</MEAN_ELEMENT_THEORY></metadata><data><meanElements><EPOCH>2025-08-03T22:00:01.999584</EPOCH><MEAN_MOTION>15.16191152</MEAN_MOTION><ECCENTRICITY>.0005559</ECCENTRICITY><INCLINATION>51.8729</INCLINATION><RA_OF_ASC_NODE>352.1671</RA_OF_ASC_NODE><ARG_OF_PERICENTER>85.4977</ARG_OF_PERICENTER><MEAN_ANOMALY>36.4598</MEAN_ANOMALY></meanElements><tleParameters><EPHEMERIS_TYPE>0</EPHEMERIS_TYPE><CLASSIFICATION_TYPE>U</CLASSIFICATION_TYPE><NORAD_CAT_ID>63736</NORAD_CAT_ID><ELEMENT_SET_NO>999</ELEMENT_SET_NO><REV_AT_EPOCH>1515</REV_AT_EPOCH><BSTAR>-.5704E-1</BSTAR><MEAN_MOTION_DOT>-.1024783E-1</MEAN_MOTION_DOT><MEAN_MOTION_DDOT>0</MEAN_MOTION_DDOT></tleParameters></data></segment></body></omm>
<omm id="CCSDS_OMM_VERS" version="2.0">
<header><CREATION_DATE/><ORIGINATOR/></header><body><segment><metadata><OBJECT_NAME>KUIPER-00023</OBJECT_NAME><OBJECT_ID>2025-088P</OBJECT_ID><CENTER_NAME>EARTH</CENTER_NAME><REF_FRAME>TEME</REF_FRAME><TIME_SYSTEM>UTC</TIME_SYSTEM><MEAN_ELEMENT_THEORY>SGP4</MEAN_ELEMENT_THEORY></metadata><data><meanElements><EPOCH>2025-08-03T22:00:01.999584</EPOCH><MEAN_MOTION>15.13736062</MEAN_MOTION><ECCENTRICITY>.0009497</ECCENTRICITY><INCLINATION>51.8796</INCLINATION><RA_OF_ASC_NODE>352.9299</RA_OF_ASC_NODE><ARG_OF_PERICENTER>88.6641</ARG_OF_PERICENTER><MEAN_ANOMALY>29.8118</MEAN_ANOMALY></meanElements><tleParameters><EPHEMERIS_TYPE>0</EPHEMERIS_TYPE><CLASSIFICATION_TYPE>U</CLASSIFICATION_TYPE><NORAD_CAT_ID>63737</NORAD_CAT_ID><ELEMENT_SET_NO>999</ELEMENT_SET_NO><REV_AT_EPOCH>1544</REV_AT_EPOCH><BSTAR>-.63507E-1</BSTAR><MEAN_MOTION_DOT>-.1075296E-1</MEAN_MOTION_DOT><MEAN_MOTION_DDOT>0</MEAN_MOTION_DDOT></tleParameters></data></segment></body></omm>
<omm id="CCSDS_OMM_VERS" version="2.0">
<header><CREATION_DATE/><ORIGINATOR/></header><body><segment><metadata><OBJECT_NAME>KUIPER-00024</OBJECT_NAME><OBJECT_ID>2025-088Q</OBJECT_ID><CENTER_NAME>EARTH</CENTER_NAME><REF_FRAME>TEME</REF_FRAME><TIME_SYSTEM>UTC</TIME_SYSTEM><MEAN_ELEMENT_THEORY>SGP4</MEAN_ELEMENT_THEORY></metadata><data><meanElements><EPOCH>2025-08-03T09:49:44.592960</EPOCH><MEAN_MOTION>15.38710762</MEAN_MOTION><ECCENTRICITY>.000105</ECCENTRICITY><INCLINATION>51.8725</INCLINATION><RA_OF_ASC_NODE>351.3129</RA_OF_ASC_NODE><ARG_OF_PERICENTER>104.8735</ARG_OF_PERICENTER><MEAN_ANOMALY>255.2369</MEAN_ANOMALY></meanElements><tleParameters><EPHEMERIS_TYPE>0</EPHEMERIS_TYPE><CLASSIFICATION_TYPE>U</CLASSIFICATION_TYPE><NORAD_CAT_ID>63738</NORAD_CAT_ID><ELEMENT_SET_NO>999</ELEMENT_SET_NO><REV_AT_EPOCH>1555</REV_AT_EPOCH><BSTAR>.45993E-3</BSTAR><MEAN_MOTION_DOT>.17518E-3</MEAN_MOTION_DOT><MEAN_MOTION_DDOT>0</MEAN_MOTION_DDOT></tleParameters></data></segment></body></omm>
<omm id="CCSDS_OMM_VERS" version="2.0">
<header><CREATION_DATE/><ORIGINATOR/></header><body><segment><metadata><OBJECT_NAME>KUIPER-00025</OBJECT_NAME><OBJECT_ID>2025-088R</OBJECT_ID><CENTER_NAME>EARTH</CENTER_NAME><REF_FRAME>TEME</REF_FRAME><TIME_SYSTEM>UTC</TIME_SYSTEM><MEAN_ELEMENT_THEORY>SGP4</MEAN_ELEMENT_THEORY></metadata><data><meanElements><EPOCH>2025-08-03T22:00:01.999584</EPOCH><MEAN_MOTION>15.21305330</MEAN_MOTION><ECCENTRICITY>.0008481</ECCENTRICITY><INCLINATION>51.8779</INCLINATION><RA_OF_ASC_NODE>350.7141</RA_OF_ASC_NODE><ARG_OF_PERICENTER>68.2613</ARG_OF_PERICENTER><MEAN_ANOMALY>357.7574</MEAN_ANOMALY></meanElements><tleParameters><EPHEMERIS_TYPE>0</EPHEMERIS_TYPE><CLASSIFICATION_TYPE>U</CLASSIFICATION_TYPE><NORAD_CAT_ID>63739</NORAD_CAT_ID><ELEMENT_SET_NO>999</ELEMENT_SET_NO><REV_AT_EPOCH>1546</REV_AT_EPOCH><BSTAR>.1245E-2</BSTAR><MEAN_MOTION_DOT>.28033E-3</MEAN_MOTION_DOT><MEAN_MOTION_DDOT>0</MEAN_MOTION_DDOT></tleParameters></data></segment></body></omm>

</ndm>
