KUIPER-00016            
1 63732U 25088J   25215.91668981 -.00032710  00000+0 -23875-2 0  9998
2 63732  51.8885 356.0561 0011227  67.1941 224.7845 15.03055448 15053
KUIPER-00018            
1 63733U 25088K   25215.91668981  .00018985  00000+0  82548-3 0  9998
2 63733  51.8750 350.6459 0005906  90.3859  60.2492 15.22276247 15137
KUIPER-00019            
1 63734U 25088L   25215.91668981 -.01621710  00000+0 -60795-1 0  9996
2 63734  51.8731 349.8862 0005657  88.1784  63.0001 15.29833586 15140
KUIPER-00020            
1 63735U 25088M   25215.91668981 -.00886777  00000+0 -46120-1 0  9998
2 63735  51.8828 351.5538 0007474  91.1392 289.2557 15.18119802 15331
KUIPER-00021            
1 63736U 25088N   25215.91668981 -.01024783  00000+0 -57040-1 0  9994
2 63736  51.8729 352.1671 0005559  85.4977  36.4598 15.16191152 15157
KUIPER-00023            
1 63737U 25088P   25215.91668981 -.01075296  00000+0 -63507-1 0  9995
2 63737  51.8796 352.9299 0009497  88.6641  29.8118 15.13736062 15442
KUIPER-00024            
1 63738U 25088Q   25215.40954390  .00017518  00000+0  45993-3 0  9993
2 63738  51.8725 351.3129 0001050 104.8735 255.2369 15.38710762 15553
KUIPER-00025            
1 63739U 25088R   25215.91668981  .00028033  00000+0  12450-2 0  9993
2 63739  51.8779 350.7141 0008481  68.2613 357.7574 15.21305330 15462
